{
  "type": "FeatureCollection",
  "features": [
    {
      "type": "Feature",
      "properties": {
        "norad_id": 59600,
        "name": "GSAT0227 (GALILEO 30)",
        "group": "gnss",
        "lat": -50.956682583130544,
        "lon": 46.547813368146684,
        "alt_km": 23237.329781780943,
        "timestamp": "2025-12-14T16:47:40.927727+00:00",
        "meta_object_name": "GSAT0227 (GALILEO 30)",
        "meta_object_id": "2024-079C",
        "meta_epoch": "2025-12-08T22:48:42.234912",
        "meta_mean_motion": 1.70474719,
        "meta_eccentricity": 0.0003262,
        "meta_inclination": 54.9946,
        "meta_ra_of_asc_node": 106.4003,
        "meta_arg_of_pericenter": 114.182,
        "meta_mean_anomaly": 245.816,
        "meta_ephemeris_type": 0,
        "meta_classification_type": "U",
        "meta_norad_cat_id": 59600,
        "meta_element_set_no": 999,
        "meta_rev_at_epoch": 1012,
        "meta_bstar": 0,
        "meta_mean_motion_dot": 9e-08,
        "meta_mean_motion_ddot": 0,
        "tle_line1": "1 59600U 24079C   25342.95048883  .00000009  00000+0  00000+0 0  9990",
        "tle_line2": "2 59600  54.9946 106.4003 0003262 114.1820 245.8160  1.70474719 10123"
      },
      "geometry": {
        "type": "Point",
        "coordinates": [
          46.547813368146684,
          -50.956682583130544
        ]
      }
    },
    {
      "type": "Feature",
      "properties": {
        "norad_id": 61182,
        "name": "GSAT0232 (GALILEO 32)",
        "group": "gnss",
        "lat": 43.59279120937699,
        "lon": 5.047863993469639,
        "alt_km": 23216.871941347574,
        "timestamp": "2025-12-14T16:47:40.927738+00:00",
        "meta_object_name": "GSAT0232 (GALILEO 32)",
        "meta_object_id": "2024-167A",
        "meta_epoch": "2025-12-12T10:51:18.741600",
        "meta_mean_motion": 1.70473504,
        "meta_eccentricity": 0.00019431,
        "meta_inclination": 55.2408,
        "meta_ra_of_asc_node": 226.4386,
        "meta_arg_of_pericenter": 211.6313,
        "meta_mean_anomaly": 332.0573,
        "meta_ephemeris_type": 0,
        "meta_classification_type": "U",
        "meta_norad_cat_id": 61182,
        "meta_element_set_no": 999,
        "meta_rev_at_epoch": 769,
        "meta_bstar": 0,
        "meta_mean_motion_dot": 1.6e-07,
        "meta_mean_motion_ddot": 0,
        "tle_line1": "1 61182U 24167A   25346.45230025  .00000016  00000+0  00000+0 0  9994",
        "tle_line2": "2 61182  55.2408 226.4386 0001943 211.6313 332.0573  1.70473504  7695"
      },
      "geometry": {
        "type": "Point",
        "coordinates": [
          5.047863993469639,
          43.59279120937699
        ]
      }
    },
    {
      "type": "Feature",
      "properties": {
        "norad_id": 61183,
        "name": "GSAT0226 (GALILEO 31)",
        "group": "gnss",
        "lat": -42.702953046983716,
        "lon": 86.20173237714323,
        "alt_km": 23228.565783114016,
        "timestamp": "2025-12-14T16:47:40.927751+00:00",
        "meta_object_name": "GSAT0226 (GALILEO 31)",
        "meta_object_id": "2024-167B",
        "meta_epoch": "2025-12-12T20:26:08.685024",
        "meta_mean_motion": 1.70473602,
        "meta_eccentricity": 8.42e-05,
        "meta_inclination": 55.2391,
        "meta_ra_of_asc_node": 226.433,
        "meta_arg_of_pericenter": 113.0334,
        "meta_mean_anomaly": 68.3038,
        "meta_ephemeris_type": 0,
        "meta_classification_type": "U",
        "meta_norad_cat_id": 61183,
        "meta_element_set_no": 999,
        "meta_rev_at_epoch": 767,
        "meta_bstar": 0,
        "meta_mean_motion_dot": 1.9e-07,
        "meta_mean_motion_ddot": 0,
        "tle_line1": "1 61183U 24167B   25346.85148941  .00000019  00000+0  00000+0 0  9997",
        "tle_line2": "2 61183  55.2391 226.4330 0000842 113.0334  68.3038  1.70473602  7673"
      },
      "geometry": {
        "type": "Point",
        "coordinates": [
          86.20173237714323,
          -42.702953046983716
        ]
      }
    },
    {
      "type": "Feature",
      "properties": {
        "norad_id": 61186,
        "name": "BEIDOU-3 M25 (C47)",
        "group": "gnss",
        "lat": -24.85712767439931,
        "lon": -70.5609796918574,
        "alt_km": 21518.408021307,
        "timestamp": "2025-12-14T16:47:40.927763+00:00",
        "meta_object_name": "BEIDOU-3 M25 (C47)",
        "meta_object_id": "2024-168B",
        "meta_epoch": "2025-12-13T09:51:38.613312",
        "meta_mean_motion": 1.86230198,
        "meta_eccentricity": 0.00054273,
        "meta_inclination": 54.6413,
        "meta_ra_of_asc_node": 308.6962,
        "meta_arg_of_pericenter": 297.8799,
        "meta_mean_anomaly": 246.8955,
        "meta_ephemeris_type": 0,
        "meta_classification_type": "U",
        "meta_norad_cat_id": 61186,
        "meta_element_set_no": 999,
        "meta_rev_at_epoch": 832,
        "meta_bstar": 0,
        "meta_mean_motion_dot": -9.7e-07,
        "meta_mean_motion_ddot": 0,
        "tle_line1": "1 61186U 24168B   25347.41086358 -.00000097  00000+0  00000+0 0  9994",
        "tle_line2": "2 61186  54.6413 308.6962 0005427 297.8799 246.8955  1.86230198  8320"
      },
      "geometry": {
        "type": "Point",
        "coordinates": [
          -70.5609796918574,
          -24.85712767439931
        ]
      }
    },
    {
      "type": "Feature",
      "properties": {
        "norad_id": 61187,
        "name": "BEIDOU-3 M27 (C49)",
        "group": "gnss",
        "lat": 52.32456866689701,
        "lon": 61.81859858903403,
        "alt_km": 21525.98630609622,
        "timestamp": "2025-12-14T16:47:40.927774+00:00",
        "meta_object_name": "BEIDOU-3 M27 (C49)",
        "meta_object_id": "2024-168C",
        "meta_epoch": "2025-12-13T04:47:06.571968",
        "meta_mean_motion": 1.86230336,
        "meta_eccentricity": 0.00023989,
        "meta_inclination": 54.6369,
        "meta_ra_of_asc_node": 308.6872,
        "meta_arg_of_pericenter": 337.1666,
        "meta_mean_anomaly": 200.7639,
        "meta_ephemeris_type": 0,
        "meta_classification_type": "U",
        "meta_norad_cat_id": 61187,
        "meta_element_set_no": 999,
        "meta_rev_at_epoch": 579,
        "meta_bstar": 0,
        "meta_mean_motion_dot": -9.6e-07,
        "meta_mean_motion_ddot": 0,
        "tle_line1": "1 61187U 24168C   25347.19938162 -.00000096  00000+0  00000+0 0  9998",
        "tle_line2": "2 61187  54.6369 308.6872 0002398 337.1666 200.7639  1.86230336  5796"
      },
      "geometry": {
        "type": "Point",
        "coordinates": [
          61.81859858903403,
          52.32456866689701
        ]
      }
    },
    {
      "type": "Feature",
      "properties": {
        "norad_id": 62339,
        "name": "GPS BIII-7  (PRN 01)",
        "group": "gnss",
        "lat": -42.57077394843706,
        "lon": -158.14532729612725,
        "alt_km": 20197.446445053538,
        "timestamp": "2025-12-14T16:47:40.927785+00:00",
        "meta_object_name": "GPS BIII-7  (PRN 01)",
        "meta_object_id": "2024-242A",
        "meta_epoch": "2025-12-13T08:55:39.244800",
        "meta_mean_motion": 2.00567973,
        "meta_eccentricity": 0.00122972,
        "meta_inclination": 54.9234,
        "meta_ra_of_asc_node": 341.714,
        "meta_arg_of_pericenter": 344.9239,
        "meta_mean_anomaly": 12.1981,
        "meta_ephemeris_type": 0,
        "meta_classification_type": "U",
        "meta_norad_cat_id": 62339,
        "meta_element_set_no": 999,
        "meta_rev_at_epoch": 752,
        "meta_bstar": 0,
        "meta_mean_motion_dot": -9.1e-07,
        "meta_mean_motion_ddot": 0,
        "tle_line1": "1 62339U 24242A   25347.37198200 -.00000091  00000+0  00000+0 0  9997",
        "tle_line2": "2 62339  54.9234 341.7140 0012297 344.9239  12.1981  2.00567973  7522"
      },
      "geometry": {
        "type": "Point",
        "coordinates": [
          -158.14532729612725,
          -42.57077394843706
        ]
      }
    },
    {
      "type": "Feature",
      "properties": {
        "norad_id": 62850,
        "name": "NVS-02 (IRNSS-1K)",
        "group": "gnss",
        "lat": -14.021105904813563,
        "lon": -172.41593505374902,
        "alt_km": 33475.28329908441,
        "timestamp": "2025-12-14T16:47:40.927796+00:00",
        "meta_object_name": "NVS-02 (IRNSS-1K)",
        "meta_object_id": "2025-020A",
        "meta_epoch": "2025-12-13T11:12:45.618624",
        "meta_mean_motion": 2.17595237,
        "meta_eccentricity": 0.73477952,
        "meta_inclination": 20.9811,
        "meta_ra_of_asc_node": 327.3966,
        "meta_arg_of_pericenter": 26.7058,
        "meta_mean_anomaly": 357.1842,
        "meta_ephemeris_type": 0,
        "meta_classification_type": "U",
        "meta_norad_cat_id": 62850,
        "meta_element_set_no": 999,
        "meta_rev_at_epoch": 693,
        "meta_bstar": 0.00038158892,
        "meta_mean_motion_dot": 4.85e-06,
        "meta_mean_motion_ddot": 0,
        "tle_line1": "1 62850U 25020A   25347.46719466  .00000485  00000+0  38159-3 0  9999",
        "tle_line2": "2 62850  20.9811 327.3966 7347795  26.7058 357.1842  2.17595237  6939"
      },
      "geometry": {
        "type": "Point",
        "coordinates": [
          -172.41593505374902,
          -14.021105904813563
        ]
      }
    }
  ]
}